DELTA 2 R/B             
1 25876U 99041E   19362.93240801 -.00000168  00000-0  11220-4 0  9995
2 25876  51.7660 267.4141 0530884 203.8889 153.6558 14.04380161 44522
HELIOS 1B               
1 25977U 99064A   19362.91638416  .00000028  00000-0  10535-4 0  9995
2 25977  98.2566 147.0753 0001873 134.4517 225.6848 14.82452599349706
TERRA                   
1 25994U 99068A   19363.45778422  .00000080  00000-0  27744-4 0  9998
2 25994  98.2106  75.1201 0001081 113.9475 246.1840 14.57113901 65416
SL-16 R/B               
1 26070U 00006B   19362.86439606  .00000099  00000-0  74998-4 0  9993
2 26070  70.9999 173.8260 0015730  18.0470 342.1208 14.15462719 28351
TITAN 4B R/B            
1 26474U 00047B   19363.48688536  .00000012  00000-0  12035-4 0  9992
2 26474  67.9921 186.2730 0054039  20.7376 339.5941 14.95897333 53758
ENVISAT                 
1 27386U 02009A   19363.48042288 -.00000006  00000-0  11543-4 0  9990
2 27386  98.1403  14.4942 0001272  87.2414  85.0206 14.37967106934040
IDEFIX & ARIANE 42P R/B 
1 27422U 02021B   19363.15257679 -.00000036  00000-0  21389-5 0  9994
2 27422  98.3277 326.5443 0012737  22.3541 337.8194 14.29279959918807
AQUA                    
1 27424U 02022A   19362.87224663  .00000086  00000-0  29205-4 0  9990
2 27424  98.2170 300.9015 0002233 127.0578 300.7959 14.57111390938933
CZ-4B R/B               
1 27432U 02024C   19362.96548112 -.00000041  00000-0  29730-5 0  9995
2 27432  99.0819 357.3003 0049661 300.7420 111.6418 14.14087730909497
MIDORI II (ADEOS-II)    
1 27597U 02056A   19362.87278689  .00000020  00000-0  25555-4 0  9997
2 27597  98.4992 309.9779 0001893 107.1750 252.9639 14.27425647887336
H-2A R/B                
1 27601U 02056E   19363.12067556  .00000052  00000-0  33399-4 0  9991
2 27601  98.2503  42.4955 0073197  68.2651 350.5814 14.31925179890161
CZ-4B R/B               
1 28059U 03049C   19362.80517317  .00000002  00000-0  12464-4 0  9996
2 28059  98.4893 272.3631 0049190 304.1903  55.4635 14.52583787857899
CZ-2C R/B               
1 28222U 04012C   19362.92222914  .00000461  00000-0  31717-4 0  9999
2 28222  97.6539 320.2835 0045711 256.8958 168.6237 15.10248661860103
SL-16 R/B               
1 28353U 04021B   19362.89648202 -.00000303  00000-0 -13402-3 0  9999
2 28353  71.0011 299.1285 0007402 246.7247 113.3097 14.14224388802881
CZ-4B R/B               
1 28415U 04035C   19362.84127433 -.00000020  00000-0  30948-5 0  9997
2 28415  97.6381  41.0639 0050788 215.8224 143.9593 15.06783548837796
CZ-2C R/B               
1 28480U 04046B   19363.17618942 -.00000003  00000-0  14055-4 0  9999
2 28480  98.1040  46.1756 0142138  12.6054  52.8701 14.25713772786038
ARIANE 5 R/B            
1 28499U 04049H   19362.86196744  .00000033  00000-0  11346-4 0  9990
2 28499  98.0534  99.1666 0093493 107.7089   4.1521 14.80000205810754
CZ-2D R/B               
1 28738U 05024B   19362.90816209  .00000179  00000-0  14069-4 0  9996
2 28738  97.3979  26.0252 0013386  60.6495 299.6071 15.11933409795485
SUZAKU (ASTRO-EII)      
1 28773U 05025A   19362.60226468  .00000773  00000-0  33459-4 0  9999
2 28773  31.3835  53.9073 0004563 278.9809  81.0322 15.17325129797814
ALOS (DAICHI)           
1 28931U 06002A   19363.39535449  .00000113  00000-0  30734-4 0  9991
2 28931  97.8310 352.6631 0000652  33.2053 326.9193 14.62669678742694
H-2A R/B                
1 28932U 06002B   19362.91525285  .00000204  00000-0  25040-4 0  9991
2 28932  98.3055 338.4652 0089184 161.9578 251.5893 14.92110461755564
AKARI (ASTRO-F)         
1 28939U 06005A   19362.87615140  .00001597  00000-0  45845-4 0  9997
2 28939  98.2115 312.6309 0094730 203.4159 156.2755 15.33430556754619
RESURS-DK 1             
1 29228U 06021A   19362.85460438  .00000046  00000-0  10789-4 0  9990
2 29228  69.9359 264.8293 0005423 328.1039  31.9793 15.02496605746973
GENESIS 1               
1 29252U 06029A   19362.86618292  .00000492  00000-0  34060-4 0  9992
2 29252  64.5208 142.7166 0028004 201.7446 158.2491 15.17972295742058
CZ-4B R/B               
1 29507U 06046C   19363.11307548  .00000044  00000-0  83636-5 0  9999
2 29507  97.7472  20.5311 0049922  24.2843 336.0717 15.00462524719724
CZ-2C R/B               
1 31114U 07010B   19363.13876396  .00000004  00000-0  20375-4 0  9998
2 31114  98.2809 222.2927 0060600  47.1036 313.5206 14.19304292658720
COSMO-SKYMED 1          
1 31598U 07023A   19363.47370350  .00000177  00000-0  28724-4 0  9991
2 31598  97.8826 184.1111 0001448  93.0963 267.0442 14.82155246679502
GENESIS 2               
1 31789U 07028A   19362.85419243  .00000362  00000-0  28135-4 0  9996
2 31789  64.5030 184.0138 0052865 262.6174  96.8939 15.17111850689138
COSMOS 2428             
1 31792U 07029A   19363.45597273 -.00000198  00000-0 -81338-4 0  9991
2 31792  70.9289 271.9476 0010435 321.2750  38.7621 14.12404851644728
SL-16 R/B               
1 31793U 07029B   19363.13965961 -.00000224  00000-0 -91946-4 0  9996
2 31793  70.9759 246.2267 0002658 263.0811 205.9162 14.14426531645509
KORONAS-FOTON           
1 33504U 09003A   19362.84225746  .00000643  00000-0  32084-4 0  9990
2 33504  82.4416  33.5708 0019977 148.8534 211.3887 15.15532356601399
H-2A R/B                
1 38341U 12025E   19363.45636008  .00000105  00000-0  19775-4 0  9992
2 38341  98.4753 142.6710 0056595  62.1944 298.4989 14.83967368412094
CUSAT 2 & FALCON 9 R/B  
1 39271U 13055G   19362.86626533  .00002558  00000-0  62338-4 0  9992
2 39271  80.9682  91.3411 0594043 325.6877  30.7228 14.46518091325910
SL-4 R/B                
1 39679U 14021B   19362.81484161 -.00000021  00000-0  17610-4 0  9999
2 39679  51.6141 183.8531 0173003  71.1520 290.8124 15.06262026313477
ALOS-2                  
1 39766U 14029A   19363.46767780 -.00000113  00000-0 -81894-5 0  9996
2 39766  97.9228  97.5294 0001379  93.8932 266.2450 14.79469601302412
SL-27 R/B               
1 40354U 14084B   19362.89768915  .00000699  00000-0  18437-4 0  9998
2 40354  74.7379  22.9429 0039353 297.7394  61.9829 15.39957489281722
YAOGAN 29               
1 41038U 15069A   19363.43977061  .00000000  00000-0  69525-5 0  9998
2 41038  97.9951 346.8546 0002336  81.2039 278.9435 14.80430337220972
ASTRO-H (HITOMI)        
1 41337U 16012A   19362.75945316  .00000227  00000-0  11477-4 0  9994
2 41337  31.0071  18.3376 0012402 174.6451 185.4318 14.98637726211723
SHENZHOU-11 MODULE      
1 41868U 16061G   19362.79405119  .00020546  00000-0  79994-4 0  9997
2 41868  42.7906 129.2095 0011060 343.1065 138.8864 15.86590870178716
HXMT (HUIYAN)           
1 42758U 17034A   19363.20501024  .00000051  00000-0  16966-4 0  9995
2 42758  43.0192 255.3739 0010932  22.6302 115.1419 15.08725954140004
AEOLUS                  
1 43600U 18066A   19361.89070133  .00023026  00000-0  91358-4 0  9998
2 43600  96.7178   5.8658 0005920  95.4340 317.8689 15.86694396 78000
SAOCOM 1A               
1 43641U 18076A   19363.48183474  .00000014  00000-0  82894-5 0  9992
2 43641  97.8841 187.0438 0001310  85.0579 275.0791 14.82153521 66271
CREW DRAGON DEMO-1 DEB  
1 44064U 19011B   19362.66870160  .00008240  00000-0  10166-3 0  9996
2 44064  51.6402 100.3152 0004400 125.3705 234.7690 15.61143309 46049
